OBJECT_NAME,OBJECT_ID,EPOCH,MEAN_MOTION,ECCENTRICITY,INCLINATION,RA_OF_ASC_NODE,ARG_OF_PERICENTER,MEAN_ANOMALY,EPHEMERIS_TYPE,CLASSIFICATION_TYPE,NORAD_CAT_ID,ELEMENT_SET_NO,REV_AT_EPOCH,BSTAR,MEAN_MOTION_DOT,MEAN_MOTION_DDOT
ONEWEB-0616,2023-004T,2026-07-02T18:51:40.301568,13.17649790,.0001185,87.9136,2.7642,116.1862,243.9392,0,U,55157,999,16975,-.3146E-4,.1E-7,0
ONEWEB-0617,2023-004U,2026-07-02T18:49:09.928416,13.11415009,.0002138,87.8880,17.9633,80.0821,280.0548,0,U,55158,999,16790,-.78897E-3,-.267E-5,0
ONEWEB-0618,2023-004V,2026-07-02T11:12:35.470944,15.13277688,.0009886,86.9087,171.4307,227.4487,132.5919,0,U,55159,999,18457,.47902E-3,.856E-4,0
ONEWEB-0619,2023-004W,2026-07-02T17:48:29.661408,13.17650198,.0001629,87.9145,2.7550,79.1649,280.9666,0,U,55160,999,16964,.10792E-3,.55E-6,0
ONEWEB-0620,2023-004X,2026-07-02T18:41:50.319168,13.11414561,.0002082,87.8872,17.9719,92.8383,267.2984,0,U,55161,999,16787,.48289E-4,.3E-6,0
ONEWEB-0621,2023-004Y,2026-07-02T19:20:53.712672,13.11416933,.0001869,87.8888,17.9571,81.1068,279.0271,0,U,55162,999,16785,-.11496E-2,-.395E-5,0
ONEWEB-0622,2023-004Z,2026-07-02T19:28:13.627776,13.11417976,.0002476,87.8889,17.9586,78.6766,281.4640,0,U,55163,999,16784,-.58845E-3,-.196E-5,0
ONEWEB-0623,2023-004AA,2026-07-02T17:41:10.867776,13.17649715,.0002134,87.9131,2.7843,68.9940,291.1420,0,U,55164,999,16963,-.34191E-3,-.12E-5,0
ONEWEB-0624,2023-004AB,2026-07-02T19:37:32.539008,13.12929396,.0001805,87.8954,347.4739,89.1580,270.9755,0,U,55165,999,17012,.58686E-3,.225E-5,0
ONEWEB-0625,2023-004AC,2026-07-02T10:09:13.857120,13.17650433,.0001694,87.9135,2.8425,93.4557,266.6769,0,U,55166,999,16958,-.23344E-4,.4E-7,0
ONEWEB-0626,2023-004AD,2026-07-02T19:01:21.739872,13.17647667,.0002149,87.9134,2.7688,99.3595,260.7780,0,U,55167,999,16963,-.25869E-5,.12E-6,0
ONEWEB-0627,2023-004AE,2026-07-02T18:44:22.155072,13.17647636,.0001985,87.9131,2.7717,76.7120,283.4233,0,U,55168,999,16963,-.26578E-4,.3E-7,0
ONEWEB-0628,2023-004AF,2026-07-02T17:29:19.338720,13.12443787,.0001866,87.8966,347.5623,70.1530,289.9799,0,U,55169,999,17007,-.44149E-3,-.146E-5,0
ONEWEB-0629,2023-004AG,2026-07-02T18:09:08.868960,13.17649259,.0001692,87.9132,2.7725,82.7759,277.3565,0,U,55170,999,16963,.17924E-3,.82E-6,0
ONEWEB-0631,2023-004AH,2026-07-02T19:23:24.802080,13.18686444,.000236,87.9185,332.3285,95.7327,264.4075,0,U,55171,999,17173,-.7856E-4,-.18E-6,0
ONEWEB-0709,2023-004AJ,2026-07-02T18:27:12.019104,13.11414497,.0002372,87.8875,17.9762,107.6656,252.4731,0,U,55172,999,16791,.10869E-2,.398E-5,0
ONEWEB-0710,2023-004AK,2026-07-02T18:29:46.989600,13.17648863,.0002002,87.9132,2.7649,86.9226,273.2134,0,U,55173,999,16963,-.37516E-3,-.133E-5,0
ONEWEB-0711,2023-004AL,2026-07-02T19:35:33.289728,13.11418423,.0002281,87.8882,17.9546,72.0862,288.0515,0,U,55174,999,16788,-.1167E-3,-.29E-6,0
ONEWEB-0713,2023-004AM,2026-07-02T20:02:25.454976,13.11416301,.0002065,87.8882,17.9526,78.8805,281.2555,0,U,55175,999,16787,.16213E-2,.587E-5,0
ONEWEB-0715,2023-004AN,2026-07-02T19:55:05.647008,13.11417159,.0002445,87.8878,17.9542,98.2467,261.8939,0,U,55176,999,16791,.1503E-2,.545E-5,0
ONEWEB-0716,2023-004AP,2026-07-02T18:20:03.647040,13.17649369,.0001683,87.9131,2.7691,94.5567,265.5757,0,U,55177,999,16963,-.37534E-3,-.133E-5,0
ONEWEB-0717,2023-004AQ,2026-07-02T17:55:47.135712,13.17649886,.0002339,87.9146,2.7614,81.5976,278.5420,0,U,55178,999,16968,.76428E-4,.43E-6,0
ONEWEB-0719,2023-004AR,2026-07-02T10:52:58.275264,13.17650013,.0001659,87.9144,2.8002,89.0382,271.0939,0,U,55179,999,16959,.80142E-4,.44E-6,0
ONEWEB-0530,2023-029A,2026-07-02T16:41:59.832096,13.20772396,.0002078,87.9189,271.3775,87.0558,273.0813,0,U,55796,999,16319,-.59911E-4,-.11E-6,0
ONEWEB-0534,2023-029B,2026-07-02T16:25:00.801984,13.20772576,.0001957,87.9189,271.3808,102.3484,257.7868,0,U,55797,999,16319,.52764E-4,.34E-6,0
ONEWEB-0556,2023-029C,2026-07-02T16:34:41.638944,13.20769941,.0001174,87.9186,271.3784,93.7297,266.3971,0,U,55798,999,16319,-.21665E-3,-.75E-6,0
ONEWEB-0562,2023-029D,2026-07-02T16:15:19.610784,13.20771411,.000174,87.9182,271.3621,75.5392,284.5935,0,U,55799,999,16319,.16507E-4,.2E-6,0
ONEWEB-0563,2023-029E,2026-07-02T12:29:51.807264,13.20773160,.0001936,87.9185,271.4236,106.1041,254.0306,0,U,55800,999,16316,-.3455E-4,-.1E-7,0
ONEWEB-0564,2023-029F,2026-07-02T15:58:22.115136,13.20771878,.0001923,87.9188,271.3684,88.7578,271.3776,0,U,55801,999,16319,.1565E-3,.77E-6,0
ONEWEB-0638,2023-029G,2026-07-02T20:16:46.080192,13.14501660,.0001439,87.8964,286.6303,91.3057,268.8238,0,U,55802,999,16145,-.25202E-3,-.81E-6,0
ONEWEB-0639,2023-029H,2026-07-02T19:14:35.258208,13.19727339,.0002076,87.9181,301.8655,128.9880,231.1438,0,U,55803,999,16096,.30822E-3,.136E-5,0
