ONEWEB-0616             
1 55157U 23004T   26183.78588312  .00000001  00000+0 -31460-4 0  9993
2 55157  87.9136   2.7642 0001185 116.1862 243.9392 13.17649790169757
ONEWEB-0617             
1 55158U 23004U   26183.78414269 -.00000267  00000+0 -78897-3 0  9992
2 55158  87.8880  17.9633 0002138  80.0821 280.0548 13.11415009167902
ONEWEB-0618             
1 55159U 23004V   26183.46707721  .00008560  00000+0  47902-3 0  9991
2 55159  86.9087 171.4307 0009886 227.4487 132.5919 15.13277688184576
ONEWEB-0619             
1 55160U 23004W   26183.74200997  .00000055  00000+0  10792-3 0  9995
2 55160  87.9145   2.7550 0001629  79.1649 280.9666 13.17650198169640
ONEWEB-0620             
1 55161U 23004X   26183.77905462  .00000030  00000+0  48289-4 0  9994
2 55161  87.8872  17.9719 0002082  92.8383 267.2984 13.11414561167873
ONEWEB-0621             
1 55162U 23004Y   26183.80617723 -.00000395  00000+0 -11496-2 0  9993
2 55162  87.8888  17.9571 0001869  81.1068 279.0271 13.11416933167853
ONEWEB-0622             
1 55163U 23004Z   26183.81126884 -.00000196  00000+0 -58845-3 0  9997
2 55163  87.8889  17.9586 0002476  78.6766 281.4640 13.11417976167846
ONEWEB-0623             
1 55164U 23004AA  26183.73693134 -.00000120  00000+0 -34191-3 0  9991
2 55164  87.9131   2.7843 0002134  68.9940 291.1420 13.17649715169630
ONEWEB-0624             
1 55165U 23004AB  26183.81773772  .00000225  00000+0  58686-3 0  9997
2 55165  87.8954 347.4739 0001805  89.1580 270.9755 13.12929396170128
ONEWEB-0625             
1 55166U 23004AC  26183.42307705  .00000004  00000+0 -23344-4 0  9994
2 55166  87.9135   2.8425 0001694  93.4557 266.6769 13.17650433169586
ONEWEB-0626             
1 55167U 23004AD  26183.79261273  .00000012  00000+0 -25869-5 0  9998
2 55167  87.9134   2.7688 0002149  99.3595 260.7780 13.17647667169638
ONEWEB-0627             
1 55168U 23004AE  26183.78081198  .00000003  00000+0 -26578-4 0  9991
2 55168  87.9131   2.7717 0001985  76.7120 283.4233 13.17647636169630
ONEWEB-0628             
1 55169U 23004AF  26183.72869605 -.00000146  00000+0 -44149-3 0  9995
2 55169  87.8966 347.5623 0001866  70.1530 289.9799 13.12443787170077
ONEWEB-0629             
1 55170U 23004AG  26183.75635265  .00000082  00000+0  17924-3 0  9991
2 55170  87.9132   2.7725 0001692  82.7759 277.3565 13.17649259169636
ONEWEB-0631             
1 55171U 23004AH  26183.80792595 -.00000018  00000+0 -78560-4 0  9993
2 55171  87.9185 332.3285 0002360  95.7327 264.4075 13.18686444171731
ONEWEB-0709             
1 55172U 23004AJ  26183.76888911  .00000398  00000+0  10869-2 0  9992
2 55172  87.8875  17.9762 0002372 107.6656 252.4731 13.11414497167915
ONEWEB-0710             
1 55173U 23004AK  26183.77068275 -.00000133  00000+0 -37516-3 0  9995
2 55173  87.9132   2.7649 0002002  86.9226 273.2134 13.17648863169632
ONEWEB-0711             
1 55174U 23004AL  26183.81635752 -.00000029  00000+0 -11670-3 0  9998
2 55174  87.8882  17.9546 0002281  72.0862 288.0515 13.11418423167882
ONEWEB-0713             
1 55175U 23004AM  26183.83501684  .00000587  00000+0  16213-2 0  9991
2 55175  87.8882  17.9526 0002065  78.8805 281.2555 13.11416301167873
ONEWEB-0715             
1 55176U 23004AN  26183.82992647  .00000545  00000+0  15030-2 0  9994
2 55176  87.8878  17.9542 0002445  98.2467 261.8939 13.11417159167916
ONEWEB-0716             
1 55177U 23004AP  26183.76393110 -.00000133  00000+0 -37534-3 0  9997
2 55177  87.9131   2.7691 0001683  94.5567 265.5757 13.17649369169636
ONEWEB-0717             
1 55178U 23004AQ  26183.74707333  .00000043  00000+0  76428-4 0  9996
2 55178  87.9146   2.7614 0002339  81.5976 278.5420 13.17649886169687
ONEWEB-0719             
1 55179U 23004AR  26183.45345226  .00000044  00000+0  80142-4 0  9993
2 55179  87.9144   2.8002 0001659  89.0382 271.0939 13.17650013169593
ONEWEB-0530             
1 55796U 23029A   26183.69583139 -.00000011  00000+0 -59911-4 0  9994
2 55796  87.9189 271.3775 0002078  87.0558 273.0813 13.20772396163192
ONEWEB-0534             
1 55797U 23029B   26183.68403706  .00000034  00000+0  52764-4 0  9997
2 55797  87.9189 271.3808 0001957 102.3484 257.7868 13.20772576163193
ONEWEB-0556             
1 55798U 23029C   26183.69075971 -.00000075  00000+0 -21665-3 0  9990
2 55798  87.9186 271.3784 0001174  93.7297 266.3971 13.20769941163193
ONEWEB-0562             
1 55799U 23029D   26183.67731031  .00000020  00000+0  16507-4 0  9993
2 55799  87.9182 271.3621 0001740  75.5392 284.5935 13.20771411163190
ONEWEB-0563             
1 55800U 23029E   26183.52073851 -.00000001  00000+0 -34550-4 0  9998
2 55800  87.9185 271.4236 0001936 106.1041 254.0306 13.20773160163162
ONEWEB-0564             
1 55801U 23029F   26183.66553374  .00000077  00000+0  15650-3 0  9997
2 55801  87.9188 271.3684 0001923  88.7578 271.3776 13.20771878163198
ONEWEB-0638             
1 55802U 23029G   26183.84497778 -.00000081  00000+0 -25202-3 0  9994
2 55802  87.8964 286.6303 0001439  91.3057 268.8238 13.14501660161455
ONEWEB-0639             
1 55803U 23029H   26183.80179697  .00000136  00000+0  30822-3 0  9991
2 55803  87.9181 301.8655 0002076 128.9880 231.1438 13.19727339160965
